{
  "norad_id": 63487,
  "name": "STARLINK-33754",
  "history": [
    {
      "epoch": "2026-03-28T12:14:06.501408Z",
      "apogee_km": 483.08966735190825,
      "perigee_km": 482.89618348801105,
      "latitude_deg": -8.200243606946006e-07,
      "longitude_deg": 144.13249483602073,
      "height_km": 482.7982584446754,
      "semi_major_axis_km": 6861.129925419959,
      "eccentricity": 1.41e-05,
      "inclination_deg": 43.0021,
      "raan_deg": 153.5888,
      "arg_perigee_deg": 107.9627,
      "mean_anomaly_deg": 252.124,
      "mean_motion_rev_day": 15.27598759
    },
    {
      "epoch": "2026-03-28T21:39:01.621440Z",
      "apogee_km": 485.57140645798427,
      "perigee_km": 480.4186962874037,
      "latitude_deg": 2.590636150506956e-05,
      "longitude_deg": 0.29988329755091775,
      "height_km": 482.971981420013,
      "semi_major_axis_km": 6861.132051372693,
      "eccentricity": 0.0003755,
      "inclination_deg": 42.9998,
      "raan_deg": 151.3725,
      "arg_perigee_deg": 265.5763,
      "mean_anomaly_deg": 94.466,
      "mean_motion_rev_day": 15.27598049
    }
  ]
}